[{"OBJECT_NAME":"COSMOS 2590","OBJECT_ID":"2025-131D","EPOCH":"2026-03-14T16:37:03.321120","MEAN_MOTION":1.00263416,"ECCENTRICITY":0.3658599,"INCLINATION":0.126,"RA_OF_ASC_NODE":25.2424,"ARG_OF_PERICENTER":73.8344,"MEAN_ANOMALY":69.8583,"EPHEMERIS_TYPE":0,"CLASSIFICATION_TYPE":"U","NORAD_CAT_ID":64527,"ELEMENT_SET_NO":999,"REV_AT_EPOCH":266,"BSTAR":0,"MEAN_MOTION_DOT":-2.54e-6,"MEAN_MOTION_DDOT":0},{"OBJECT_NAME":"MTG-S1","OBJECT_ID":"2025-143A","EPOCH":"2026-03-14T08:29:31.539264","MEAN_MOTION":1.00271204,"ECCENTRICITY":0.0002251,"INCLINATION":0.6441,"RA_OF_ASC_NODE":327.9937,"ARG_OF_PERICENTER":352.086,"MEAN_ANOMALY":335.7596,"EPHEMERIS_TYPE":0,"CLASSIFICATION_TYPE":"U","NORAD_CAT_ID":64723,"ELEMENT_SET_NO":999,"REV_AT_EPOCH":246,"BSTAR":0,"MEAN_MOTION_DOT":-3.3e-7,"MEAN_MOTION_DDOT":0},{"OBJECT_NAME":"DROR 1","OBJECT_ID":"2025-148A","EPOCH":"2026-03-14T08:29:24.050976","MEAN_MOTION":1.00272062,"ECCENTRICITY":0.00035677,"INCLINATION":0.0251,"RA_OF_ASC_NODE":265.5363,"ARG_OF_PERICENTER":88.7676,"MEAN_ANOMALY":301.0001,"EPHEMERIS_TYPE":0,"CLASSIFICATION_TYPE":"U","NORAD_CAT_ID":64784,"ELEMENT_SET_NO":999,"REV_AT_EPOCH":234,"BSTAR":0,"MEAN_MOTION_DOT":-3.5e-7,"MEAN_MOTION_DDOT":0},{"OBJECT_NAME":"SHIYAN-29","OBJECT_ID":"2025-196A","EPOCH":"2026-03-13T21:56:18.348000","MEAN_MOTION":1.00286225,"ECCENTRICITY":0.00102072,"INCLINATION":28.721,"RA_OF_ASC_NODE":19.7347,"ARG_OF_PERICENTER":179.9084,"MEAN_ANOMALY":35.8172,"EPHEMERIS_TYPE":0,"CLASSIFICATION_TYPE":"U","NORAD_CAT_ID":65486,"ELEMENT_SET_NO":999,"REV_AT_EPOCH":192,"BSTAR":0,"MEAN_MOTION_DOT":-2.61e-6,"MEAN_MOTION_DDOT":0},{"OBJECT_NAME":"NUSANTARA LIMA (NUSANTARA 5)","OBJECT_ID":"2025-205A","EPOCH":"2026-03-14T00:29:17.592864","MEAN_MOTION":1.00270456,"ECCENTRICITY":7.014e-5,"INCLINATION":0.0575,"RA_OF_ASC_NODE":74.8775,"ARG_OF_PERICENTER":358.9132,"MEAN_ANOMALY":218.0351,"EPHEMERIS_TYPE":0,"CLASSIFICATION_TYPE":"U","NORAD_CAT_ID":65588,"ELEMENT_SET_NO":999,"REV_AT_EPOCH":176,"BSTAR":0,"MEAN_MOTION_DOT":-3.58e-6,"MEAN_MOTION_DDOT":0},{"OBJECT_NAME":"TJS-20","OBJECT_ID":"2025-238A","EPOCH":"2026-03-14T13:56:33.402624","MEAN_MOTION":1.00272699,"ECCENTRICITY":0.00080515,"INCLINATION":5.6815,"RA_OF_ASC_NODE":299.8959,"ARG_OF_PERICENTER":96.3927,"MEAN_ANOMALY":47.4149,"EPHEMERIS_TYPE":0,"CLASSIFICATION_TYPE":"U","NORAD_CAT_ID":66142,"ELEMENT_SET_NO":999,"REV_AT_EPOCH":138,"BSTAR":0,"MEAN_MOTION_DOT":2.1e-7,"MEAN_MOTION_DDOT":0},{"OBJECT_NAME":"SPAINSAT NG II","OBJECT_ID":"2025-239A","EPOCH":"2026-03-13T18:01:52.853952","MEAN_MOTION":0.97166504,"ECCENTRICITY":0.76605004,"INCLINATION":14.7555,"RA_OF_ASC_NODE":233.0147,"ARG_OF_PERICENTER":201.4742,"MEAN_ANOMALY":88.9226,"EPHEMERIS_TYPE":0,"CLASSIFICATION_TYPE":"U","NORAD_CAT_ID":66144,"ELEMENT_SET_NO":999,"REV_AT_EPOCH":142,"BSTAR":0,"MEAN_MOTION_DOT":7.3e-7,"MEAN_MOTION_DDOT":0},{"OBJECT_NAME":"CMS-03 (GSAT-7R)","OBJECT_ID":"2025-249B","EPOCH":"2026-03-14T15:58:49.819296","MEAN_MOTION":1.00273703,"ECCENTRICITY":0.00030852,"INCLINATION":0.0387,"RA_OF_ASC_NODE":265.2162,"ARG_OF_PERICENTER":86.4386,"MEAN_ANOMALY":134.274,"EPHEMERIS_TYPE":0,"CLASSIFICATION_TYPE":"U","NORAD_CAT_ID":66311,"ELEMENT_SET_NO":999,"REV_AT_EPOCH":140,"BSTAR":0,"MEAN_MOTION_DOT":-7.8e-7,"MEAN_MOTION_DDOT":0},{"OBJECT_NAME":"VIASAT-3 F2","OBJECT_ID":"2025-261A","EPOCH":"2026-03-14T13:16:07.281120","MEAN_MOTION":1.00271307,"ECCENTRICITY":9.346e-5,"INCLINATION":0.097,"RA_OF_ASC_NODE":271.3306,"ARG_OF_PERICENTER":124.4889,"MEAN_ANOMALY":256.409,"EPHEMERIS_TYPE":0,"CLASSIFICATION_TYPE":"U","NORAD_CAT_ID":66454,"ELEMENT_SET_NO":999,"REV_AT_EPOCH":183,"BSTAR":0,"MEAN_MOTION_DOT":-2.34e-6,"MEAN_MOTION_DDOT":0},{"OBJECT_NAME":"SHIJIAN-28 (SJ-28)","OBJECT_ID":"2025-277A","EPOCH":"2026-03-14T13:24:02.281536","MEAN_MOTION":1.00269527,"ECCENTRICITY":5.939e-5,"INCLINATION":4.7838,"RA_OF_ASC_NODE":273.563,"ARG_OF_PERICENTER":176.2618,"MEAN_ANOMALY":40.1078,"EPHEMERIS_TYPE":0,"CLASSIFICATION_TYPE":"U","NORAD_CAT_ID":66549,"ELEMENT_SET_NO":999,"REV_AT_EPOCH":120,"BSTAR":0,"MEAN_MOTION_DOT":-3.67e-6,"MEAN_MOTION_DDOT":0},{"OBJECT_NAME":"TJS-22","OBJECT_ID":"2025-290A","EPOCH":"2026-03-14T03:07:10.068096","MEAN_MOTION":1.00273514,"ECCENTRICITY":0.00028662,"INCLINATION":1.7626,"RA_OF_ASC_NODE":285.5081,"ARG_OF_PERICENTER":0.5326,"MEAN_ANOMALY":358.9592,"EPHEMERIS_TYPE":0,"CLASSIFICATION_TYPE":"U","NORAD_CAT_ID":66990,"ELEMENT_SET_NO":999,"REV_AT_EPOCH":107,"BSTAR":0,"MEAN_MOTION_DOT":-9.0e-8,"MEAN_MOTION_DDOT":0},{"OBJECT_NAME":"TJS-23","OBJECT_ID":"2025-306A","EPOCH":"2026-03-13T20:43:45.325056","MEAN_MOTION":1.00269361,"ECCENTRICITY":0.00055028,"INCLINATION":5.8052,"RA_OF_ASC_NODE":297.9584,"ARG_OF_PERICENTER":108.0936,"MEAN_ANOMALY":251.8717,"EPHEMERIS_TYPE":0,"CLASSIFICATION_TYPE":"U","NORAD_CAT_ID":67226,"ELEMENT_SET_NO":999,"REV_AT_EPOCH":93,"BSTAR":0,"MEAN_MOTION_DOT":1.4e-7,"MEAN_MOTION_DDOT":0},{"OBJECT_NAME":"CZ-5 R/B","OBJECT_ID":"2025-306B","EPOCH":"2026-03-14T01:43:00.259392","MEAN_MOTION":1.93482913,"ECCENTRICITY":0.75638154,"INCLINATION":15.9513,"RA_OF_ASC_NODE":270.8045,"ARG_OF_PERICENTER":231.3305,"MEAN_ANOMALY":33.4077,"EPHEMERIS_TYPE":0,"CLASSIFICATION_TYPE":"U","NORAD_CAT_ID":67227,"ELEMENT_SET_NO":999,"REV_AT_EPOCH":163,"BSTAR":0.0015700684,"MEAN_MOTION_DOT":4.187e-5,"MEAN_MOTION_DDOT":0},{"OBJECT_NAME":"FENGYUN 4C","OBJECT_ID":"2025-312A","EPOCH":"2026-03-14T14:16:31.488096","MEAN_MOTION":1.00271896,"ECCENTRICITY":8.081e-5,"INCLINATION":0.0183,"RA_OF_ASC_NODE":341.0219,"ARG_OF_PERICENTER":61.3449,"MEAN_ANOMALY":116.9629,"EPHEMERIS_TYPE":0,"CLASSIFICATION_TYPE":"U","NORAD_CAT_ID":67246,"ELEMENT_SET_NO":999,"REV_AT_EPOCH":83,"BSTAR":0,"MEAN_MOTION_DOT":-3.24e-6,"MEAN_MOTION_DDOT":0},{"OBJECT_NAME":"SHIJIAN-29A (SJ-29A)","OBJECT_ID":"2025-315A","EPOCH":"2026-03-14T18:37:40.801152","MEAN_MOTION":1.0027358,"ECCENTRICITY":0.0002492,"INCLINATION":3.1563,"RA_OF_ASC_NODE":97.5377,"ARG_OF_PERICENTER":312.4966,"MEAN_ANOMALY":114.8987,"EPHEMERIS_TYPE":0,"CLASSIFICATION_TYPE":"U","NORAD_CAT_ID":67302,"ELEMENT_SET_NO":999,"REV_AT_EPOCH":67,"BSTAR":0,"MEAN_MOTION_DOT":-6.7e-7,"MEAN_MOTION_DDOT":0},{"OBJECT_NAME":"SHIJIAN-29B (SJ-29B)","OBJECT_ID":"2025-315C","EPOCH":"2026-03-14T18:37:40.800288","MEAN_MOTION":1.00273093,"ECCENTRICITY":0.0004615,"INCLINATION":3.1562,"RA_OF_ASC_NODE":97.5212,"ARG_OF_PERICENTER":322.3833,"MEAN_ANOMALY":105.0961,"EPHEMERIS_TYPE":0,"CLASSIFICATION_TYPE":"U","NORAD_CAT_ID":67403,"ELEMENT_SET_NO":999,"REV_AT_EPOCH":74,"BSTAR":0,"MEAN_MOTION_DOT":-6.8e-7,"MEAN_MOTION_DDOT":0},{"OBJECT_NAME":"LUCH (OLYMP-K 1) DEB","OBJECT_ID":"2014-058D","EPOCH":"2026-02-26T11:11:16.173888","MEAN_MOTION":0.97993456,"ECCENTRICITY":0.05207694,"INCLINATION":1.5795,"RA_OF_ASC_NODE":85.6956,"ARG_OF_PERICENTER":329.0115,"MEAN_ANOMALY":28.4425,"EPHEMERIS_TYPE":0,"CLASSIFICATION_TYPE":"U","NORAD_CAT_ID":67745,"ELEMENT_SET_NO":999,"REV_AT_EPOCH":26,"BSTAR":0,"MEAN_MOTION_DOT":-2.21e-6,"MEAN_MOTION_DDOT":0}]
