COSMOS 2590             
1 64527U 25131D   26073.69239955 -.00000254  00000+0  00000+0 0  9992
2 64527   0.1260  25.2424 3658599  73.8344  69.8583  1.00263416  2664
MTG-S1                  
1 64723U 25143A   26073.35383726 -.00000033  00000+0  00000+0 0  9997
2 64723   0.6441 327.9937 0002251 352.0860 335.7596  1.00271204  2460
DROR 1                  
1 64784U 25148A   26073.35375059 -.00000035  00000+0  00000+0 0  9991
2 64784   0.0251 265.5363 0003567  88.7676 301.0001  1.00272062  2346
SHIYAN-29               
1 65486U 25196A   26072.91410125 -.00000261  00000+0  00000+0 0  9990
2 65486  28.7210  19.7347 0010207 179.9084  35.8172  1.00286225  1924
NUSANTARA LIMA (NUSANT*)
1 65588U 25205A   26073.02034251 -.00000358  00000+0  00000+0 0  9996
2 65588   0.0575  74.8775 0000701 358.9132 218.0351  1.00270456  1767
TJS-20                  
1 66142U 25238A   26073.58094216  .00000021  00000+0  00000+0 0  9993
2 66142   5.6815 299.8959 0008051  96.3927  47.4149  1.00272699  1384
SPAINSAT NG II          
1 66144U 25239A   26072.75130618  .00000073  00000+0  00000+0 0  9998
2 66144  14.7555 233.0147 7660500 201.4742  88.9226  0.97166504  1424
CMS-03 (GSAT-7R)        
1 66311U 25249B   26073.66585439 -.00000078  00000+0  00000+0 0  9997
2 66311   0.0387 265.2162 0003085  86.4386 134.2740  1.00273703  1401
VIASAT-3 F2             
1 66454U 25261A   26073.55286205 -.00000234  00000+0  00000+0 0  9990
2 66454   0.0970 271.3306 0000934 124.4889 256.4090  1.00271307  1836
SHIJIAN-28 (SJ-28)      
1 66549U 25277A   26073.55835974 -.00000367  00000+0  00000+0 0  9992
2 66549   4.7838 273.5630 0000593 176.2618  40.1078  1.00269527  1201
TJS-22                  
1 66990U 25290A   26073.12997764 -.00000009  00000+0  00000+0 0  9999
2 66990   1.7626 285.5081 0002866   0.5326 358.9592  1.00273514  1073
TJS-23                  
1 67226U 25306A   26072.86371904  .00000014  00000+0  00000+0 0  9997
2 67226   5.8052 297.9584 0005502 108.0936 251.8717  1.00269361   939
CZ-5 R/B                
1 67227U 25306B   26073.07153078  .00004187  00000+0  15701-2 0  9994
2 67227  15.9513 270.8045 7563815 231.3305  33.4077  1.93482913  1632
FENGYUN 4C              
1 67246U 25312A   26073.59480889 -.00000324  00000+0  00000+0 0  9995
2 67246   0.0183 341.0219 0000808  61.3449 116.9629  1.00271896   831
SHIJIAN-29A (SJ-29A)    
1 67302U 25315A   26073.77616668 -.00000067  00000+0  00000+0 0  9991
2 67302   3.1563  97.5377 0002492 312.4966 114.8987  1.00273580   671
SHIJIAN-29B (SJ-29B)    
1 67403U 25315C   26073.77616667 -.00000068  00000+0  00000+0 0  9993
2 67403   3.1562  97.5212 0004615 322.3833 105.0961  1.00273093   743
LUCH (OLYMP-K 1) DEB    
1 67745U 14058D   26057.46615942 -.00000221  00000+0  00000+0 0  9998
2 67745   1.5795  85.6956 0520769 329.0115  28.4425  0.97993456   262
